HAWK-A                  
1 43765U 18099H   26068.67628545  .00008617  00000+0  36104-3 0  9995
2 43765  97.4051 122.2425 0034260 275.5523  84.1807 15.23231043397949
STARLINK-33676          
1 63403U 25065E   26068.50647396  .00021686  00000+0  79494-3 0  9994
2 63403  43.0032 107.9671 0001888 272.2095  87.8541 15.27592571 52816
